{
    "links": {
        "self": "http://www.neowsapp.com/rest/v1/neo/54016938?api_key=iIulBulltgU6a56xZRHN4H3l9WmuAYTsLGpBGhQ2"
    },
    "id": "54016938",
    "neo_reference_id": "54016938",
    "name": "(2020 HC10)",
    "designation": "2020 HC10",
    "nasa_jpl_url": "http://ssd.jpl.nasa.gov/sbdb.cgi?sstr=54016938",
    "absolute_magnitude_h": 22.337,
    "estimated_diameter": {
        "kilometers": {
            "estimated_diameter_min": 0.0906055866,
            "estimated_diameter_max": 0.2026002509
        },
        "meters": {
            "estimated_diameter_min": 90.6055866375,
            "estimated_diameter_max": 202.6002508628
        },
        "miles": {
            "estimated_diameter_min": 0.056299684,
            "estimated_diameter_max": 0.1258899205
        },
        "feet": {
            "estimated_diameter_min": 297.2624328639,
            "estimated_diameter_max": 664.6990070406
        }
    },
    "is_potentially_hazardous_asteroid": false,
    "close_approach_data": [
        {
            "close_approach_date": "1996-05-20",
            "close_approach_date_full": "1996-May-20 08:59",
            "epoch_date_close_approach": 832582740000,
            "relative_velocity": {
                "kilometers_per_second": "6.3883968627",
                "kilometers_per_hour": "22998.2287057063",
                "miles_per_hour": "14290.2049421651"
            },
            "miss_distance": {
                "astronomical": "0.2355107959",
                "lunar": "91.6136996051",
                "kilometers": "35231913.428644733",
                "miles": "21892095.8545859954"
            },
            "orbiting_body": "Earth"
        },
        {
            "close_approach_date": "2020-05-16",
            "close_approach_date_full": "2020-May-16 13:37",
            "epoch_date_close_approach": 1589636220000,
            "relative_velocity": {
                "kilometers_per_second": "7.6583752225",
                "kilometers_per_hour": "27570.1508010347",
                "miles_per_hour": "17131.0195352318"
            },
            "miss_distance": {
                "astronomical": "0.2097349032",
                "lunar": "81.5868773448",
                "kilometers": "31375894.783376184",
                "miles": "19496076.9732879792"
            },
            "orbiting_body": "Earth"
        }
    ],
    "orbital_data": {
        "orbit_id": "15",
        "orbit_determination_date": "2020-06-11 05:57:26",
        "first_observation_date": "2020-04-29",
        "last_observation_date": "2020-06-11",
        "data_arc_in_days": 43,
        "observations_used": 66,
        "orbit_uncertainty": "7",
        "minimum_orbit_intersection": ".191821",
        "jupiter_tisserand_invariant": "3.433",
        "epoch_osculation": "2459000.5",
        "eccentricity": ".4797046799488164",
        "semi_major_axis": "2.269739359462208",
        "inclination": "10.33007793332609",
        "ascending_node_longitude": "214.3689780808627",
        "orbital_period": "1248.999918610592",
        "perihelion_distance": "1.180934766464157",
        "perihelion_argument": "33.49149316576468",
        "aphelion_distance": "3.358543952460257",
        "perihelion_time": "2458993.952557485209",
        "mean_anomaly": "1.887173305781197",
        "mean_motion": ".2882306032497342",
        "equinox": "J2000",
        "orbit_class": {
            "orbit_class_type": "AMO",
            "orbit_class_description": "Near-Earth asteroid orbits similar to that of 1221 Amor",
            "orbit_class_range": "1.017 AU < q (perihelion) < 1.3 AU"
        }
    },
    "is_sentry_object": false
}